SAUDISAT 1C (SO-50)     
1 27607U 02058C   26166.33462240  .00000861  00000+0  11895-3 0  9993
2 27607  64.5510 134.7171 0075307 262.8143  96.4397 14.83043230264184
SAUDISAT 2              
1 28371U 04025F   26166.51779598  .00000214  00000+0  58977-4 0  9990
2 28371  98.5508 166.4566 0023655 303.6308  56.2632 14.56683103165504
SAUDISAT 3              
1 31118U 07012B   26166.42262825  .00000206  00000+0  41453-4 0  9994
2 31118  98.1456 116.8220 0013538 229.8092 130.1930 14.71424637 27488
PISAT                   
1 41784U 16059B   26166.50923541  .00000736  00000+0  13293-3 0  9991
2 41784  97.8179 167.0341 0028238 208.2747 151.6928 14.68980953519495
FLYING LAPTOP           
1 42831U 17042G   26166.51907706  .00003525  00000+0  27856-3 0  9993
2 42831  97.4672 322.1159 0019506 127.1002 233.2009 15.01137353486200
SALSAT                  
1 46495U 20068K   26166.51026536  .00006457  00000+0  22659-3 0  9991
2 46495  97.8844 169.4726 0008149 315.3702  44.6880 15.29779241315105
